start=new Date('2022-12-27T00:00:00.000Z').valueOf();
sats=[{"MEAN_ELEMENT_THEORY":"SGP4","SEMIMAJOR_AXIS":"6925.343","TIME_SYSTEM":"UTC","MEAN_MOTION_DOT":"0.00002989","CENTER_NAME":"EARTH","NORAD_CAT_ID":"48455","MEAN_MOTION":"15.06401866","EPOCH":"2022-12-26T12:49:56.913600","APOAPSIS":"548.635","MEAN_MOTION_DDOT":"0.0000000000000","ARG_OF_PERICENTER":"50.4953","OBJECT_NAME":"STARLINK-2497","REV_AT_EPOCH":"9101","CLASSIFICATION_TYPE":"U","INCLINATION":"53.0524","DECAY_DATE":null,"REF_FRAME":"TEME","OBJECT_ID":"2021-040AD","TLE_LINE2":"2 48455  53.0524  30.1709 0002061  50.4953 309.6218 15.06401866 91019","ECCENTRICITY":"0.00020610","TLE_LINE1":"1 48455U 21040AD  22360.53468650  .00002989  00000-0  21948-3 0  9998","FILE":"3722834","MEAN_ANOMALY":"309.6218","PERIOD":"95.592","OBJECT_TYPE":"PAYLOAD","PERIAPSIS":"545.781","LAUNCH_DATE":"2021-05-09","EPHEMERIS_TYPE":"0","RCS_SIZE":"LARGE","GP_ID":"221466624","COUNTRY_CODE":"US","SITE":"AFETR","RA_OF_ASC_NODE":"30.1709","ELEMENT_SET_NO":"999","BSTAR":"0.00021948000000"},{"DECAY_DATE":null,"INCLINATION":"53.0556","TLE_LINE1":"1 48456U 21040AE  22360.46464350  .00000585  00000-0  58228-4 0  9996","MEAN_ANOMALY":"327.5671","FILE":"3722937","OBJECT_ID":"2021-040AE","REF_FRAME":"TEME","TLE_LINE2":"2 48456  53.0556  30.4809 0002577  32.5476 327.5671 15.06399765 90398","ECCENTRICITY":"0.00025770","PERIOD":"95.592","OBJECT_TYPE":"PAYLOAD","LAUNCH_DATE":"2021-05-09","PERIAPSIS":"545.430","RCS_SIZE":"LARGE","EPHEMERIS_TYPE":"0","COUNTRY_CODE":"US","GP_ID":"221490060","SITE":"AFETR","ELEMENT_SET_NO":"999","BSTAR":"0.00005822800000","RA_OF_ASC_NODE":"30.4809","MEAN_ELEMENT_THEORY":"SGP4","SEMIMAJOR_AXIS":"6925.349","CENTER_NAME":"EARTH","TIME_SYSTEM":"UTC","MEAN_MOTION_DOT":"0.00000585","NORAD_CAT_ID":"48456","MEAN_MOTION":"15.06399765","EPOCH":"2022-12-26T11:09:05.198400","MEAN_MOTION_DDOT":"0.0000000000000","ARG_OF_PERICENTER":"32.5476","APOAPSIS":"548.999","OBJECT_NAME":"STARLINK-2508","REV_AT_EPOCH":"9039","CLASSIFICATION_TYPE":"U"},{"SEMIMAJOR_AXIS":"6925.362","MEAN_ELEMENT_THEORY":"SGP4","CENTER_NAME":"EARTH","MEAN_MOTION_DOT":"0.00001521","TIME_SYSTEM":"UTC","MEAN_MOTION":"15.06395532","NORAD_CAT_ID":"48458","EPOCH":"2022-12-26T19:24:43.391520","ARG_OF_PERICENTER":"47.3925","MEAN_MOTION_DDOT":"0.0000000000000","APOAPSIS":"548.504","OBJECT_NAME":"STARLINK-2698","CLASSIFICATION_TYPE":"U","REV_AT_EPOCH":"9109","DECAY_DATE":null,"INCLINATION":"53.0549","TLE_LINE1":"1 48458U 21040AG  22360.80883555  .00001521  00000-0  12098-3 0  9993","MEAN_ANOMALY":"312.7220","FILE":"3723236","ECCENTRICITY":"0.00018430","TLE_LINE2":"2 48458  53.0549  34.0215 0001843  47.3925 312.7220 15.06395532 91093","OBJECT_ID":"2021-040AG","REF_FRAME":"TEME","PERIOD":"95.592","OBJECT_TYPE":"PAYLOAD","EPHEMERIS_TYPE":"0","RCS_SIZE":"LARGE","LAUNCH_DATE":"2021-05-09","PERIAPSIS":"545.951","COUNTRY_CODE":"US","GP_ID":"221522839","SITE":"AFETR","ELEMENT_SET_NO":"999","BSTAR":"0.00012098000000","RA_OF_ASC_NODE":"34.0215"},{"CLASSIFICATION_TYPE":"U","REV_AT_EPOCH":"9094","OBJECT_NAME":"STARLINK-2579","ARG_OF_PERICENTER":"39.2468","MEAN_MOTION_DDOT":"0.0000000000000","APOAPSIS":"548.655","EPOCH":"2022-12-26T12:51:59.660352","MEAN_MOTION":"15.06402071","NORAD_CAT_ID":"48459","CENTER_NAME":"EARTH","MEAN_MOTION_DOT":"-0.00000457","TIME_SYSTEM":"UTC","SEMIMAJOR_AXIS":"6925.342","MEAN_ELEMENT_THEORY":"SGP4","ELEMENT_SET_NO":"999","BSTAR":"-0.00001178300000","RA_OF_ASC_NODE":"35.5125","SITE":"AFETR","COUNTRY_CODE":"US","GP_ID":"221466623","RCS_SIZE":"LARGE","EPHEMERIS_TYPE":"0","PERIAPSIS":"545.759","LAUNCH_DATE":"2021-05-09","OBJECT_TYPE":"PAYLOAD","PERIOD":"95.592","FILE":"3722834","TLE_LINE1":"1 48459U 21040AH  22360.53610718 -.00000457  00000-0 -11783-4 0  9993","MEAN_ANOMALY":"320.8672","ECCENTRICITY":"0.00020910","TLE_LINE2":"2 48459  53.0564  35.5125 0002091  39.2468 320.8672 15.06402071 90946","REF_FRAME":"TEME","OBJECT_ID":"2021-040AH","DECAY_DATE":null,"INCLINATION":"53.0564"},{"CENTER_NAME":"EARTH","MEAN_MOTION_DOT":"-0.00002598","TIME_SYSTEM":"UTC","NORAD_CAT_ID":"48460","MEAN_MOTION":"15.06406732","MEAN_ELEMENT_THEORY":"SGP4","SEMIMAJOR_AXIS":"6925.328","OBJECT_NAME":"STARLINK-2582","REV_AT_EPOCH":"9089","CLASSIFICATION_TYPE":"U","EPOCH":"2022-12-26T19:40:37.567200","MEAN_MOTION_DDOT":"0.0000000000000","ARG_OF_PERICENTER":"35.4219","APOAPSIS":"548.709","PERIOD":"95.592","OBJECT_TYPE":"PAYLOAD","DECAY_DATE":null,"INCLINATION":"53.0566","TLE_LINE1":"1 48460U 21040AJ  22360.81987925 -.00002598  00000-0 -15550-3 0  9996","FILE":"3723236","MEAN_ANOMALY":"324.6915","REF_FRAME":"TEME","OBJECT_ID":"2021-040AJ","ECCENTRICITY":"0.00021890","TLE_LINE2":"2 48460  53.0566  33.8943 0002189  35.4219 324.6915 15.06406732 90893","SITE":"AFETR","ELEMENT_SET_NO":"999","BSTAR":"-0.00015550000000","RA_OF_ASC_NODE":"33.8943","LAUNCH_DATE":"2021-05-09","PERIAPSIS":"545.677","EPHEMERIS_TYPE":"0","RCS_SIZE":"LARGE","COUNTRY_CODE":"US","GP_ID":"221524341"},{"SEMIMAJOR_AXIS":"6925.317","MEAN_ELEMENT_THEORY":"SGP4","CENTER_NAME":"EARTH","MEAN_MOTION_DOT":"-0.00000862","TIME_SYSTEM":"UTC","MEAN_MOTION":"15.06410313","NORAD_CAT_ID":"48461","EPOCH":"2022-12-26T20:01:51.204288","ARG_OF_PERICENTER":"48.3793","MEAN_MOTION_DDOT":"0.0000000000000","APOAPSIS":"548.622","OBJECT_NAME":"STARLINK-2693","CLASSIFICATION_TYPE":"U","REV_AT_EPOCH":"9039","DECAY_DATE":null,"INCLINATION":"53.0548","FILE":"3723236","TLE_LINE1":"1 48461U 21040AK  22360.83462042 -.00000862  00000-0 -38946-4 0  9994","MEAN_ANOMALY":"311.7374","ECCENTRICITY":"0.00020790","TLE_LINE2":"2 48461  53.0548  33.8277 0002079  48.3793 311.7374 15.06410313 90393","OBJECT_ID":"2021-040AK","REF_FRAME":"TEME","PERIOD":"95.591","OBJECT_TYPE":"PAYLOAD","EPHEMERIS_TYPE":"0","RCS_SIZE":"LARGE","PERIAPSIS":"545.742","LAUNCH_DATE":"2021-05-09","COUNTRY_CODE":"US","GP_ID":"221523089","SITE":"AFETR","BSTAR":"-0.00003894600000","ELEMENT_SET_NO":"999","RA_OF_ASC_NODE":"33.8277"},{"REF_FRAME":"TEME","OBJECT_ID":"2021-040AL","ECCENTRICITY":"0.00017260","TLE_LINE2":"2 48462  53.0547  40.9585 0001726  56.5818 303.5336 15.06405932 90254","FILE":"3722937","TLE_LINE1":"1 48462U 21040AL  22360.41952837  .00008758  00000-0  60605-3 0  9991","MEAN_ANOMALY":"303.5336","INCLINATION":"53.0547","DECAY_DATE":null,"OBJECT_TYPE":"PAYLOAD","PERIOD":"95.592","GP_ID":"221489810","COUNTRY_CODE":"US","PERIAPSIS":"546.000","LAUNCH_DATE":"2021-05-09","RCS_SIZE":"LARGE","EPHEMERIS_TYPE":"0","RA_OF_ASC_NODE":"40.9585","ELEMENT_SET_NO":"999","BSTAR":"0.00060605000000","SITE":"AFETR","SEMIMAJOR_AXIS":"6925.330","MEAN_ELEMENT_THEORY":"SGP4","NORAD_CAT_ID":"48462","MEAN_MOTION":"15.06405932","TIME_SYSTEM":"UTC","MEAN_MOTION_DOT":"0.00008758","CENTER_NAME":"EARTH","APOAPSIS":"548.391","MEAN_MOTION_DDOT":"0.0000000000000","ARG_OF_PERICENTER":"56.5818","EPOCH":"2022-12-26T10:04:07.251168","REV_AT_EPOCH":"9025","CLASSIFICATION_TYPE":"U","OBJECT_NAME":"STARLINK-2683"},{"NORAD_CAT_ID":"48463","MEAN_MOTION":"15.06399645","CENTER_NAME":"EARTH","TIME_SYSTEM":"UTC","MEAN_MOTION_DOT":"0.00000602","MEAN_ELEMENT_THEORY":"SGP4","SEMIMAJOR_AXIS":"6925.350","REV_AT_EPOCH":"9026","CLASSIFICATION_TYPE":"U","OBJECT_NAME":"STARLINK-2689","MEAN_MOTION_DDOT":"0.0000000000000","ARG_OF_PERICENTER":"52.9253","APOAPSIS":"548.540","EPOCH":"2022-12-26T10:13:19.603776","OBJECT_TYPE":"PAYLOAD","PERIOD":"95.592","TLE_LINE1":"1 48463U 21040AM  22360.42592134  .00000602  00000-0  59318-4 0  9993","MEAN_ANOMALY":"307.1910","FILE":"3722937","REF_FRAME":"TEME","OBJECT_ID":"2021-040AM","ECCENTRICITY":"0.00019140","TLE_LINE2":"2 48463  53.0539  40.6579 0001914  52.9253 307.1910 15.06399645 90260","DECAY_DATE":null,"INCLINATION":"53.0539","BSTAR":"0.00005931800000","ELEMENT_SET_NO":"999","RA_OF_ASC_NODE":"40.6579","SITE":"AFETR","COUNTRY_CODE":"US","GP_ID":"221490562","LAUNCH_DATE":"2021-05-09","PERIAPSIS":"545.889","EPHEMERIS_TYPE":"0","RCS_SIZE":"LARGE"},{"EPOCH":"2022-12-26T09:42:50.340384","APOAPSIS":"548.777","MEAN_MOTION_DDOT":"0.0000000000000","ARG_OF_PERICENTER":"45.1327","OBJECT_NAME":"STARLINK-2686","REV_AT_EPOCH":"9025","CLASSIFICATION_TYPE":"U","MEAN_ELEMENT_THEORY":"SGP4","SEMIMAJOR_AXIS":"6925.355","MEAN_MOTION_DOT":"-0.00000509","TIME_SYSTEM":"UTC","CENTER_NAME":"EARTH","NORAD_CAT_ID":"48464","MEAN_MOTION":"15.06397766","LAUNCH_DATE":"2021-05-09","PERIAPSIS":"545.664","RCS_SIZE":"MEDIUM","EPHEMERIS_TYPE":"0","GP_ID":"221491312","COUNTRY_CODE":"US","SITE":"AFETR","RA_OF_ASC_NODE":"40.7491","ELEMENT_SET_NO":"999","BSTAR":"-0.00001524100000","INCLINATION":"53.0546","DECAY_DATE":null,"REF_FRAME":"TEME","OBJECT_ID":"2021-040AN","TLE_LINE2":"2 48464  53.0546  40.7491 0002248  45.1327 314.9844 15.06397766 90253","ECCENTRICITY":"0.00022480","TLE_LINE1":"1 48464U 21040AN  22360.40474931 -.00000509  00000-0 -15241-4 0  9991","MEAN_ANOMALY":"314.9844","FILE":"3722937","PERIOD":"95.592","OBJECT_TYPE":"PAYLOAD"},{"DECAY_DATE":null,"INCLINATION":"53.0549","TLE_LINE1":"1 48465U 21040AP  22360.48215171  .00000091  00000-0  25024-4 0  9993","FILE":"3723075","MEAN_ANOMALY":"321.7658","REF_FRAME":"TEME","OBJECT_ID":"2021-040AP","ECCENTRICITY":"0.00023990","TLE_LINE2":"2 48465  53.0549  40.3885 0002399  38.3502 321.7658 15.06403311 91542","PERIOD":"95.592","OBJECT_TYPE":"PAYLOAD","LAUNCH_DATE":"2021-05-09","PERIAPSIS":"545.542","RCS_SIZE":"LARGE","EPHEMERIS_TYPE":"0","COUNTRY_CODE":"US","GP_ID":"221498484","SITE":"AFETR","ELEMENT_SET_NO":"999","BSTAR":"0.00002502400000","RA_OF_ASC_NODE":"40.3885","MEAN_ELEMENT_THEORY":"SGP4","SEMIMAJOR_AXIS":"6925.338","CENTER_NAME":"EARTH","TIME_SYSTEM":"UTC","MEAN_MOTION_DOT":"0.00000091","NORAD_CAT_ID":"48465","MEAN_MOTION":"15.06403311","EPOCH":"2022-12-26T11:34:17.907744","MEAN_MOTION_DDOT":"0.0000000000000","ARG_OF_PERICENTER":"38.3502","APOAPSIS":"548.865","OBJECT_NAME":"STARLINK-2681","REV_AT_EPOCH":"9154","CLASSIFICATION_TYPE":"U"}];
